[{"COMMENT":"GENERATED VIA SPACETRACK.ORG API","ORIGINATOR":"18 SPCS","NORAD_CAT_ID":"45120","OBJECT_NAME":"VPM","OBJECT_TYPE":"PAYLOAD","CLASSIFICATION_TYPE":"U","INTLDES":"19071K","EPOCH":"2020-08-17 19:12:53","EPOCH_MICROSECONDS":"109216","MEAN_MOTION":"15.3435107","ECCENTRICITY":"0.0010976","INCLINATION":"51.6433","RA_OF_ASC_NODE":"66.3217","ARG_OF_PERICENTER":"275.0035","MEAN_ANOMALY":"84.9694","EPHEMERIS_TYPE":"0","ELEMENT_SET_NO":"999","REV_AT_EPOCH":"3043","BSTAR":"0.000089893","MEAN_MOTION_DOT":"0.00002659","MEAN_MOTION_DDOT":"0","FILE":"2803715","TLE_LINE0":"0 VPM","TLE_LINE1":"1 45120U 19071K   20230.80061469  .00002659  00000-0  89893-4 0  9994","TLE_LINE2":"2 45120  51.6433  66.3217 0010976 275.0035  84.9694 15.34351070 30435","OBJECT_ID":"2019-071K","OBJECT_NUMBER":"45120","SEMIMAJOR_AXIS":"6840.985","PERIOD":"93.850","APOGEE":"470.359","PERIGEE":"455.342","DECAYED":"0"},{"COMMENT":"GENERATED VIA SPACETRACK.ORG API","ORIGINATOR":"18 SPCS","NORAD_CAT_ID":"45120","OBJECT_NAME":"VPM","OBJECT_TYPE":"PAYLOAD","CLASSIFICATION_TYPE":"U","INTLDES":"19071K","EPOCH":"2020-08-18 12:24:34","EPOCH_MICROSECONDS":"165440","MEAN_MOTION":"15.34355448","ECCENTRICITY":"0.0010973","INCLINATION":"51.6432","RA_OF_ASC_NODE":"62.8552","ARG_OF_PERICENTER":"277.7087","MEAN_ANOMALY":"82.265","EPHEMERIS_TYPE":"0","ELEMENT_SET_NO":"999","REV_AT_EPOCH":"3054","BSTAR":"0.000086635","MEAN_MOTION_DOT":"0.00002549","MEAN_MOTION_DDOT":"0","FILE":"2804180","TLE_LINE0":"0 VPM","TLE_LINE1":"1 45120U 19071K   20231.51706210 +.00002549 +00000-0 +86635-4 0  9992","TLE_LINE2":"2 45120 051.6432 062.8552 0010973 277.7087 082.2650 15.34355448030548","OBJECT_ID":"2019-071K","OBJECT_NUMBER":"45120","SEMIMAJOR_AXIS":"6840.972","PERIOD":"93.850","APOGEE":"470.344","PERIGEE":"455.331","DECAYED":"0"},{"COMMENT":"GENERATED VIA SPACETRACK.ORG API","ORIGINATOR":"18 SPCS","NORAD_CAT_ID":"45120","OBJECT_NAME":"VPM","OBJECT_TYPE":"PAYLOAD","CLASSIFICATION_TYPE":"U","INTLDES":"19071K","EPOCH":"2020-08-18 20:13:30","EPOCH_MICROSECONDS":"986400","MEAN_MOTION":"15.34356457","ECCENTRICITY":"0.001097","INCLINATION":"51.6432","RA_OF_ASC_NODE":"61.2797","ARG_OF_PERICENTER":"278.9498","MEAN_ANOMALY":"81.0242","EPHEMERIS_TYPE":"0","ELEMENT_SET_NO":"999","REV_AT_EPOCH":"3059","BSTAR":"0.000078867","MEAN_MOTION_DOT":"0.00002286","MEAN_MOTION_DDOT":"0","FILE":"2804379","TLE_LINE0":"0 VPM","TLE_LINE1":"1 45120U 19071K   20231.84271975 +.00002286 +00000-0 +78867-4 0  9999","TLE_LINE2":"2 45120 051.6432 061.2797 0010970 278.9498 081.0242 15.34356457030598","OBJECT_ID":"2019-071K","OBJECT_NUMBER":"45120","SEMIMAJOR_AXIS":"6840.969","PERIOD":"93.850","APOGEE":"470.339","PERIGEE":"455.330","DECAYED":"0"},{"COMMENT":"GENERATED VIA SPACETRACK.ORG API","ORIGINATOR":"18 SPCS","NORAD_CAT_ID":"45120","OBJECT_NAME":"VPM","OBJECT_TYPE":"PAYLOAD","CLASSIFICATION_TYPE":"U","INTLDES":"19071K","EPOCH":"2020-08-18 23:21:05","EPOCH_MICROSECONDS":"705280","MEAN_MOTION":"15.34357063","ECCENTRICITY":"0.0010969","INCLINATION":"51.6432","RA_OF_ASC_NODE":"60.6495","ARG_OF_PERICENTER":"279.4637","MEAN_ANOMALY":"80.5105","EPHEMERIS_TYPE":"0","ELEMENT_SET_NO":"999","REV_AT_EPOCH":"3061","BSTAR":"0.000077105","MEAN_MOTION_DOT":"0.00002226","MEAN_MOTION_DDOT":"0","FILE":"2804517","TLE_LINE0":"0 VPM","TLE_LINE1":"1 45120U 19071K   20231.97298270  .00002226  00000-0  77105-4 0  9998","TLE_LINE2":"2 45120  51.6432  60.6495 0010969 279.4637  80.5105 15.34357063 30614","OBJECT_ID":"2019-071K","OBJECT_NUMBER":"45120","SEMIMAJOR_AXIS":"6840.967","PERIOD":"93.850","APOGEE":"470.336","PERIGEE":"455.329","DECAYED":"0"},{"COMMENT":"GENERATED VIA SPACETRACK.ORG API","ORIGINATOR":"18 SPCS","NORAD_CAT_ID":"45120","OBJECT_NAME":"VPM","OBJECT_TYPE":"PAYLOAD","CLASSIFICATION_TYPE":"U","INTLDES":"19071K","EPOCH":"2020-08-19 13:25:11","EPOCH_MICROSECONDS":"847360","MEAN_MOTION":"15.34361307","ECCENTRICITY":"0.0010973","INCLINATION":"51.6432","RA_OF_ASC_NODE":"57.8133","ARG_OF_PERICENTER":"281.6502","MEAN_ANOMALY":"78.3249","EPHEMERIS_TYPE":"0","ELEMENT_SET_NO":"999","REV_AT_EPOCH":"3070","BSTAR":"0.000086853","MEAN_MOTION_DOT":"0.00002557","MEAN_MOTION_DDOT":"0","FILE":"2804760","TLE_LINE0":"0 VPM","TLE_LINE1":"1 45120U 19071K   20232.55916490 +.00002557 +00000-0 +86853-4 0  9991","TLE_LINE2":"2 45120 051.6432 057.8133 0010973 281.6502 078.3249 15.34361307030702","OBJECT_ID":"2019-071K","OBJECT_NUMBER":"45120","SEMIMAJOR_AXIS":"6840.955","PERIOD":"93.850","APOGEE":"470.326","PERIGEE":"455.313","DECAYED":"0"},{"COMMENT":"GENERATED VIA SPACETRACK.ORG API","ORIGINATOR":"18 SPCS","NORAD_CAT_ID":"45120","OBJECT_NAME":"VPM","OBJECT_TYPE":"PAYLOAD","CLASSIFICATION_TYPE":"U","INTLDES":"19071K","EPOCH":"2020-08-19 19:40:21","EPOCH_MICROSECONDS":"236736","MEAN_MOTION":"15.34362446","ECCENTRICITY":"0.0010975","INCLINATION":"51.6432","RA_OF_ASC_NODE":"56.5529","ARG_OF_PERICENTER":"282.6588","MEAN_ANOMALY":"77.3167","EPHEMERIS_TYPE":"0","ELEMENT_SET_NO":"999","REV_AT_EPOCH":"3074","BSTAR":"0.000086139","MEAN_MOTION_DOT":"0.00002533","MEAN_MOTION_DDOT":"0","FILE":"2804968","TLE_LINE0":"0 VPM","TLE_LINE1":"1 45120U 19071K   20232.81969024 +.00002533 +00000-0 +86139-4 0  9992","TLE_LINE2":"2 45120 051.6432 056.5529 0010975 282.6588 077.3167 15.34362446030741","OBJECT_ID":"2019-071K","OBJECT_NUMBER":"45120","SEMIMAJOR_AXIS":"6840.951","PERIOD":"93.850","APOGEE":"470.324","PERIGEE":"455.308","DECAYED":"0"},{"COMMENT":"GENERATED VIA SPACETRACK.ORG API","ORIGINATOR":"18 SPCS","NORAD_CAT_ID":"45120","OBJECT_NAME":"VPM","OBJECT_TYPE":"PAYLOAD","CLASSIFICATION_TYPE":"U","INTLDES":"19071K","EPOCH":"2020-08-20 19:07:11","EPOCH_MICROSECONDS":"258112","MEAN_MOTION":"15.34367394","ECCENTRICITY":"0.0010987","INCLINATION":"51.6433","RA_OF_ASC_NODE":"51.826","ARG_OF_PERICENTER":"286.2981","MEAN_ANOMALY":"73.6792","EPHEMERIS_TYPE":"0","ELEMENT_SET_NO":"999","REV_AT_EPOCH":"3089","BSTAR":"0.000089032","MEAN_MOTION_DOT":"0.00002631","MEAN_MOTION_DDOT":"0","FILE":"2805526","TLE_LINE0":"0 VPM","TLE_LINE1":"1 45120U 19071K   20233.79665808  .00002631  00000-0  89032-4 0  9997","TLE_LINE2":"2 45120  51.6433  51.8260 0010987 286.2981  73.6792 15.34367394 30898","OBJECT_ID":"2019-071K","OBJECT_NUMBER":"45120","SEMIMAJOR_AXIS":"6840.937","PERIOD":"93.849","APOGEE":"470.318","PERIGEE":"455.286","DECAYED":"0"},{"COMMENT":"GENERATED VIA SPACETRACK.ORG API","ORIGINATOR":"18 SPCS","NORAD_CAT_ID":"45120","OBJECT_NAME":"VPM","OBJECT_TYPE":"PAYLOAD","CLASSIFICATION_TYPE":"U","INTLDES":"19071K","EPOCH":"2020-08-21 12:18:51","EPOCH_MICROSECONDS":"777792","MEAN_MOTION":"15.3437048","ECCENTRICITY":"0.0011001","INCLINATION":"51.6434","RA_OF_ASC_NODE":"48.3596","ARG_OF_PERICENTER":"288.9722","MEAN_ANOMALY":"71.0068","EPHEMERIS_TYPE":"0","ELEMENT_SET_NO":"999","REV_AT_EPOCH":"3100","BSTAR":"0.00008658","MEAN_MOTION_DOT":"0.00002548","MEAN_MOTION_DDOT":"0","FILE":"2805939","TLE_LINE0":"0 VPM","TLE_LINE1":"1 45120U 19071K   20234.51309928 +.00002548 +00000-0 +86580-4 0  9998","TLE_LINE2":"2 45120 051.6434 048.3596 0011001 288.9722 071.0068 15.34370480031004","OBJECT_ID":"2019-071K","OBJECT_NUMBER":"45120","SEMIMAJOR_AXIS":"6840.927","PERIOD":"93.849","APOGEE":"470.318","PERIGEE":"455.267","DECAYED":"0"},{"COMMENT":"GENERATED VIA SPACETRACK.ORG API","ORIGINATOR":"18 SPCS","NORAD_CAT_ID":"45120","OBJECT_NAME":"VPM","OBJECT_TYPE":"PAYLOAD","CLASSIFICATION_TYPE":"U","INTLDES":"19071K","EPOCH":"2020-08-21 20:07:48","EPOCH_MICROSECONDS":"340416","MEAN_MOTION":"15.34372147","ECCENTRICITY":"0.0010992","INCLINATION":"51.6434","RA_OF_ASC_NODE":"46.784","ARG_OF_PERICENTER":"290.1158","MEAN_ANOMALY":"69.8641","EPHEMERIS_TYPE":"0","ELEMENT_SET_NO":"999","REV_AT_EPOCH":"3105","BSTAR":"0.000088601","MEAN_MOTION_DOT":"0.00002617","MEAN_MOTION_DDOT":"0","FILE":"2806196","TLE_LINE0":"0 VPM","TLE_LINE1":"1 45120U 19071K   20234.83875394 +.00002617 +00000-0 +88601-4 0  9991","TLE_LINE2":"2 45120 051.6434 046.7840 0010992 290.1158 069.8641 15.34372147031053","OBJECT_ID":"2019-071K","OBJECT_NUMBER":"45120","SEMIMAJOR_AXIS":"6840.923","PERIOD":"93.849","APOGEE":"470.307","PERIGEE":"455.268","DECAYED":"0"},{"COMMENT":"GENERATED VIA SPACETRACK.ORG API","ORIGINATOR":"18 SPCS","NORAD_CAT_ID":"45120","OBJECT_NAME":"VPM","OBJECT_TYPE":"PAYLOAD","CLASSIFICATION_TYPE":"U","INTLDES":"19071K","EPOCH":"2020-08-21 23:15:22","EPOCH_MICROSECONDS":"953024","MEAN_MOTION":"15.34373","ECCENTRICITY":"0.0010997","INCLINATION":"51.6434","RA_OF_ASC_NODE":"46.1537","ARG_OF_PERICENTER":"290.609","MEAN_ANOMALY":"69.3712","EPHEMERIS_TYPE":"0","ELEMENT_SET_NO":"999","REV_AT_EPOCH":"3107","BSTAR":"0.000090888","MEAN_MOTION_DOT":"0.00002694","MEAN_MOTION_DDOT":"0","FILE":"2806333","TLE_LINE0":"0 VPM","TLE_LINE1":"1 45120U 19071K   20234.96901566  .00002694  00000-0  90888-4 0  9991","TLE_LINE2":"2 45120  51.6434  46.1537 0010997 290.6090  69.3712 15.34373000 31070","OBJECT_ID":"2019-071K","OBJECT_NUMBER":"45120","SEMIMAJOR_AXIS":"6840.920","PERIOD":"93.849","APOGEE":"470.308","PERIGEE":"455.262","DECAYED":"0"},{"COMMENT":"GENERATED VIA SPACETRACK.ORG API","ORIGINATOR":"18 SPCS","NORAD_CAT_ID":"45120","OBJECT_NAME":"VPM","OBJECT_TYPE":"PAYLOAD","CLASSIFICATION_TYPE":"U","INTLDES":"19071K","EPOCH":"2020-08-22 11:45:41","EPOCH_MICROSECONDS":"309280","MEAN_MOTION":"15.34377375","ECCENTRICITY":"0.0011017","INCLINATION":"51.6435","RA_OF_ASC_NODE":"43.6327","ARG_OF_PERICENTER":"292.5386","MEAN_ANOMALY":"67.443","EPHEMERIS_TYPE":"0","ELEMENT_SET_NO":"999","REV_AT_EPOCH":"3115","BSTAR":"0.00010577","MEAN_MOTION_DOT":"0.00003199","MEAN_MOTION_DDOT":"0","FILE":"2806583","TLE_LINE0":"0 VPM","TLE_LINE1":"1 45120U 19071K   20235.49006145 +.00003199 +00000-0 +10577-3 0  9996","TLE_LINE2":"2 45120 051.6435 043.6327 0011017 292.5386 067.4430 15.34377375031157","OBJECT_ID":"2019-071K","OBJECT_NUMBER":"45120","SEMIMAJOR_AXIS":"6840.907","PERIOD":"93.849","APOGEE":"470.309","PERIGEE":"455.235","DECAYED":"0"}]